[
    {
        "Altitude(m)": 604969.0891362295,
        "Argument of Periapsis(deg)": 0.0,
        "Eccentricity": 0.0,
        "Inclination(deg)": 60.0,
        "Latitude(deg)": -0.09266061598045858,
        "Longitude(deg)": -5.02247221100967,
        "Mean Anomaly(deg)": 0.0,
        "RAAN(deg)": 95.0,
        "Satellite Name": "Test1 418",
        "Satellite Number": 418,
        "Semi-Major Axis(m)": 6980739.136638005,
        "Time(s)": 0
    },
    {
        "Altitude(m)": 604900.0286364342,
        "Argument of Periapsis(deg)": 0.00010418945913296404,
        "Eccentricity": 0.0,
        "Inclination(deg)": 60.0,
        "Latitude(deg)": 0.44776581849358793,
        "Longitude(deg)": -4.754350255372796,
        "Mean Anomaly(deg)": 0.6201061454618275,
        "RAAN(deg)": 94.99957995086027,
        "Satellite Name": "Test1 418",
        "Satellite Number": 418,
        "Semi-Major Axis(m)": 6980739.136638005,
        "Time(s)": 10
    }
]